[
  {
    "OBJECT_NAME": "STARLINK-4607",
    "OBJECT_ID": "22107AS",
    "EPOCH": "2025-11-11T07:26:31.413984",
    "MEAN_MOTION": 15.08844508,
    "ECCENTRICITY": 0.0001417,
    "INCLINATION": 53.213,
    "RA_OF_ASC_NODE": 75.4335,
    "ARG_OF_PERICENTER": 91.2662,
    "MEAN_ANOMALY": 268.8492,
    "EPHEMERIS_TYPE": 0,
    "CLASSIFICATION_TYPE": "U",
    "NORAD_CAT_ID": 53740,
    "ELEMENT_SET_NO": 999,
    "REV_AT_EPOCH": 17672,
    "BSTAR": 8.486399999999999e-05,
    "MEAN_MOTION_DOT": 1.063e-05,
    "MEAN_MOTION_DDOT": 0.0,
    "TLE_LINE1": "1 53740U 22107AS  25315.31008581  .00001063  00000+0  84864-4 0  9996",
    "TLE_LINE2": "2 53740  53.2130  75.4335 0001417  91.2662 268.8492 15.08844508176726",
    "COMMENT": "Grouped by shell and plane from TLE"
  },
  {
    "OBJECT_NAME": "STARLINK-4637",
    "OBJECT_ID": "22107AU",
    "EPOCH": "2025-11-11T07:31:49.572480",
    "MEAN_MOTION": 15.08848268,
    "ECCENTRICITY": 0.0001523,
    "INCLINATION": 53.2178,
    "RA_OF_ASC_NODE": 75.4597,
    "ARG_OF_PERICENTER": 88.7136,
    "MEAN_ANOMALY": 271.4031,
    "EPHEMERIS_TYPE": 0,
    "CLASSIFICATION_TYPE": "U",
    "NORAD_CAT_ID": 53742,
    "ELEMENT_SET_NO": 999,
    "REV_AT_EPOCH": 17672,
    "BSTAR": 8.976300000000001e-05,
    "MEAN_MOTION_DOT": 1.141e-05,
    "MEAN_MOTION_DDOT": 0.0,
    "TLE_LINE1": "1 53742U 22107AU  25315.31376820  .00001141  00000+0  89763-4 0  9992",
    "TLE_LINE2": "2 53742  53.2178  75.4597 0001523  88.7136 271.4031 15.08848268176721",
    "COMMENT": "Grouped by shell and plane from TLE"
  },
  {
    "OBJECT_NAME": "STARLINK-4645",
    "OBJECT_ID": "22107AV",
    "EPOCH": "2025-11-11T01:31:29.553600",
    "MEAN_MOTION": 15.08857348,
    "ECCENTRICITY": 8.25e-05,
    "INCLINATION": 53.2165,
    "RA_OF_ASC_NODE": 76.7424,
    "ARG_OF_PERICENTER": 72.6654,
    "MEAN_ANOMALY": 287.4429,
    "EPHEMERIS_TYPE": 0,
    "CLASSIFICATION_TYPE": "U",
    "NORAD_CAT_ID": 53743,
    "ELEMENT_SET_NO": 999,
    "REV_AT_EPOCH": 17668,
    "BSTAR": 0.00013900999999999999,
    "MEAN_MOTION_DOT": 1.926e-05,
    "MEAN_MOTION_DDOT": 0.0,
    "TLE_LINE1": "1 53743U 22107AV  25315.06353650  .00001926  00000+0  13901-3 0  9992",
    "TLE_LINE2": "2 53743  53.2165  76.7424 0000825  72.6654 287.4429 15.08857348176684",
    "COMMENT": "Grouped by shell and plane from TLE"
  },
  {
    "OBJECT_NAME": "STARLINK-4670",
    "OBJECT_ID": "22107AW",
    "EPOCH": "2025-11-10T08:33:59.912352",
    "MEAN_MOTION": 15.08826359,
    "ECCENTRICITY": 0.0001589,
    "INCLINATION": 53.2186,
    "RA_OF_ASC_NODE": 79.449,
    "ARG_OF_PERICENTER": 91.6061,
    "MEAN_ANOMALY": 268.5113,
    "EPHEMERIS_TYPE": 0,
    "CLASSIFICATION_TYPE": "U",
    "NORAD_CAT_ID": 53744,
    "ELEMENT_SET_NO": 999,
    "REV_AT_EPOCH": 17658,
    "BSTAR": 0.00021972,
    "MEAN_MOTION_DOT": 3.209e-05,
    "MEAN_MOTION_DDOT": 0.0,
    "TLE_LINE1": "1 53744U 22107AW  25314.35694343  .00003209  00000+0  21972-3 0  9994",
    "TLE_LINE2": "2 53744  53.2186  79.4490 0001589  91.6061 268.5113 15.08826359176589",
    "COMMENT": "Grouped by shell and plane from TLE"
  },
  {
    "OBJECT_NAME": "STARLINK-4656",
    "OBJECT_ID": "22107AX",
    "EPOCH": "2025-11-11T01:36:48.780864",
    "MEAN_MOTION": 15.08840636,
    "ECCENTRICITY": 0.0001171,
    "INCLINATION": 53.2164,
    "RA_OF_ASC_NODE": 76.7638,
    "ARG_OF_PERICENTER": 89.4154,
    "MEAN_ANOMALY": 270.6973,
    "EPHEMERIS_TYPE": 0,
    "CLASSIFICATION_TYPE": "U",
    "NORAD_CAT_ID": 53745,
    "ELEMENT_SET_NO": 999,
    "REV_AT_EPOCH": 17668,
    "BSTAR": 4.4159e-05,
    "MEAN_MOTION_DOT": 4.15e-06,
    "MEAN_MOTION_DDOT": 0.0,
    "TLE_LINE1": "1 53745U 22107AX  25315.06723126  .00000415  00000+0  44159-4 0  9995",
    "TLE_LINE2": "2 53745  53.2164  76.7638 0001171  89.4154 270.6973 15.08840636176688",
    "COMMENT": "Grouped by shell and plane from TLE"
  },
  {
    "OBJECT_NAME": "STARLINK-4589",
    "OBJECT_ID": "22107AY",
    "EPOCH": "2025-11-11T07:47:44.886912",
    "MEAN_MOTION": 15.08845083,
    "ECCENTRICITY": 0.0001044,
    "INCLINATION": 53.2198,
    "RA_OF_ASC_NODE": 75.5298,
    "ARG_OF_PERICENTER": 85.9029,
    "MEAN_ANOMALY": 274.2082,
    "EPHEMERIS_TYPE": 0,
    "CLASSIFICATION_TYPE": "U",
    "NORAD_CAT_ID": 53746,
    "ELEMENT_SET_NO": 999,
    "REV_AT_EPOCH": 17672,
    "BSTAR": 0.0,
    "MEAN_MOTION_DOT": -8.02e-06,
    "MEAN_MOTION_DDOT": 0.0,
    "TLE_LINE1": "1 53746U 22107AY  25315.32482508 -.00000802  00000+0 -32315-4 0  9994",
    "TLE_LINE2": "2 53746  53.2198  75.5298 0001044  85.9029 274.2082 15.08845083176723",
    "COMMENT": "Grouped by shell and plane from TLE"
  },
  {
    "OBJECT_NAME": "STARLINK-4612",
    "OBJECT_ID": "22107BC",
    "EPOCH": "2025-11-11T01:47:25.439136",
    "MEAN_MOTION": 15.08845281,
    "ECCENTRICITY": 0.0001161,
    "INCLINATION": 53.218,
    "RA_OF_ASC_NODE": 76.8094,
    "ARG_OF_PERICENTER": 91.8294,
    "MEAN_ANOMALY": 268.2831,
    "EPHEMERIS_TYPE": 0,
    "CLASSIFICATION_TYPE": "U",
    "NORAD_CAT_ID": 53750,
    "ELEMENT_SET_NO": 999,
    "REV_AT_EPOCH": 17669,
    "BSTAR": 2.4220000000000002e-05,
    "MEAN_MOTION_DOT": 9.8e-07,
    "MEAN_MOTION_DDOT": 0.0,
    "TLE_LINE1": "1 53750U 22107BC  25315.07459999  .00000098  00000+0  24220-4 0  9990",
    "TLE_LINE2": "2 53750  53.2180  76.8094 0001161  91.8294 268.2831 15.08845281176698",
    "COMMENT": "Grouped by shell and plane from TLE"
  },
  {
    "OBJECT_NAME": "STARLINK-4710",
    "OBJECT_ID": "22111AC",
    "EPOCH": "2025-11-10T15:28:46.484544",
    "MEAN_MOTION": 15.08840539,
    "ECCENTRICITY": 9.48e-05,
    "INCLINATION": 53.2179,
    "RA_OF_ASC_NODE": 78.6019,
    "ARG_OF_PERICENTER": 98.0414,
    "MEAN_ANOMALY": 262.0685,
    "EPHEMERIS_TYPE": 0,
    "CLASSIFICATION_TYPE": "U",
    "NORAD_CAT_ID": 53799,
    "ELEMENT_SET_NO": 999,
    "REV_AT_EPOCH": 17584,
    "BSTAR": 0.00028893,
    "MEAN_MOTION_DOT": 4.314e-05,
    "MEAN_MOTION_DDOT": 0.0,
    "TLE_LINE1": "1 53799U 22111AC  25314.64498246  .00004314  00000+0  28893-3 0  9992",
    "TLE_LINE2": "2 53799  53.2179  78.6019 0000948  98.0414 262.0685 15.08840539175847",
    "COMMENT": "Grouped by shell and plane from TLE"
  },
  {
    "OBJECT_NAME": "STARLINK-4720",
    "OBJECT_ID": "22111AD",
    "EPOCH": "2025-11-11T07:05:20.158944",
    "MEAN_MOTION": 15.08842168,
    "ECCENTRICITY": 0.0001233,
    "INCLINATION": 53.216,
    "RA_OF_ASC_NODE": 75.5569,
    "ARG_OF_PERICENTER": 89.7095,
    "MEAN_ANOMALY": 270.4038,
    "EPHEMERIS_TYPE": 0,
    "CLASSIFICATION_TYPE": "U",
    "NORAD_CAT_ID": 53800,
    "ELEMENT_SET_NO": 999,
    "REV_AT_EPOCH": 17594,
    "BSTAR": 9.0351e-05,
    "MEAN_MOTION_DOT": 1.15e-05,
    "MEAN_MOTION_DDOT": 0.0,
    "TLE_LINE1": "1 53800U 22111AD  25315.29537221  .00001150  00000+0  90351-4 0  9998",
    "TLE_LINE2": "2 53800  53.2160  75.5569 0001233  89.7095 270.4038 15.08842168175942",
    "COMMENT": "Grouped by shell and plane from TLE"
  },
  {
    "OBJECT_NAME": "STARLINK-4715",
    "OBJECT_ID": "22111AE",
    "EPOCH": "2025-11-11T01:52:38.150976",
    "MEAN_MOTION": 15.08845751,
    "ECCENTRICITY": 0.0001338,
    "INCLINATION": 53.2166,
    "RA_OF_ASC_NODE": 76.3376,
    "ARG_OF_PERICENTER": 87.9514,
    "MEAN_ANOMALY": 272.1631,
    "EPHEMERIS_TYPE": 0,
    "CLASSIFICATION_TYPE": "U",
    "NORAD_CAT_ID": 53801,
    "ELEMENT_SET_NO": 999,
    "REV_AT_EPOCH": 17591,
    "BSTAR": 0.00016171,
    "MEAN_MOTION_DOT": 2.287e-05,
    "MEAN_MOTION_DDOT": 0.0,
    "TLE_LINE1": "1 53801U 22111AE  25315.07821934  .00002287  00000+0  16171-3 0  9991",
    "TLE_LINE2": "2 53801  53.2166  76.3376 0001338  87.9514 272.1631 15.08845751175912",
    "COMMENT": "Grouped by shell and plane from TLE"
  },
  {
    "OBJECT_NAME": "STARLINK-4726",
    "OBJECT_ID": "22111AF",
    "EPOCH": "2025-11-10T15:00:52.241760",
    "MEAN_MOTION": 15.08850809,
    "ECCENTRICITY": 0.0001493,
    "INCLINATION": 53.2163,
    "RA_OF_ASC_NODE": 78.4846,
    "ARG_OF_PERICENTER": 95.7841,
    "MEAN_ANOMALY": 264.3321,
    "EPHEMERIS_TYPE": 0,
    "CLASSIFICATION_TYPE": "U",
    "NORAD_CAT_ID": 53802,
    "ELEMENT_SET_NO": 999,
    "REV_AT_EPOCH": 17584,
    "BSTAR": 4.7215e-05,
    "MEAN_MOTION_DOT": 4.64e-06,
    "MEAN_MOTION_DDOT": 0.0,
    "TLE_LINE1": "1 53802U 22111AF  25314.62560465  .00000464  00000+0  47215-4 0  9990",
    "TLE_LINE2": "2 53802  53.2163  78.4846 0001493  95.7841 264.3321 15.08850809175848",
    "COMMENT": "Grouped by shell and plane from TLE"
  },
  {
    "OBJECT_NAME": "STARLINK-4729",
    "OBJECT_ID": "22111AH",
    "EPOCH": "2025-11-10T14:49:38.142048",
    "MEAN_MOTION": 15.08845484,
    "ECCENTRICITY": 0.0001372,
    "INCLINATION": 53.2177,
    "RA_OF_ASC_NODE": 73.44,
    "ARG_OF_PERICENTER": 84.7006,
    "MEAN_ANOMALY": 275.4143,
    "EPHEMERIS_TYPE": 0,
    "CLASSIFICATION_TYPE": "U",
    "NORAD_CAT_ID": 53804,
    "ELEMENT_SET_NO": 999,
    "REV_AT_EPOCH": 17591,
    "BSTAR": 0.0,
    "MEAN_MOTION_DOT": -3.21e-06,
    "MEAN_MOTION_DDOT": 0.0,
    "TLE_LINE1": "1 53804U 22111AH  25314.61780257 -.00000321  00000+0 -21023-5 0  9998",
    "TLE_LINE2": "2 53804  53.2177  73.4400 0001372  84.7006 275.4143 15.08845484175919",
    "COMMENT": "Grouped by shell and plane from TLE"
  },
  {
    "OBJECT_NAME": "STARLINK-4748",
    "OBJECT_ID": "22114F",
    "EPOCH": "2025-11-11T01:29:29.469696",
    "MEAN_MOTION": 15.08866297,
    "ECCENTRICITY": 0.0001138,
    "INCLINATION": 53.2164,
    "RA_OF_ASC_NODE": 71.6441,
    "ARG_OF_PERICENTER": 84.2976,
    "MEAN_ANOMALY": 275.8146,
    "EPHEMERIS_TYPE": 0,
    "CLASSIFICATION_TYPE": "U",
    "NORAD_CAT_ID": 53823,
    "ELEMENT_SET_NO": 999,
    "REV_AT_EPOCH": 17555,
    "BSTAR": 0.0,
    "MEAN_MOTION_DOT": -3.482e-05,
    "MEAN_MOTION_DDOT": 0.0,
    "TLE_LINE1": "1 53823U 22114F   25315.06214664 -.00003482  00000+0 -20064-3 0  9999",
    "TLE_LINE2": "2 53823  53.2164  71.6441 0001138  84.2976 275.8146 15.08866297175554",
    "COMMENT": "Grouped by shell and plane from TLE"
  }
]